LEMUR-2-PETERG          
1 42841U 17042S   26068.48235713  .00023240  00000+0  81076-3 0  9993
2 42841  97.3980 253.6596 0003700 341.6938  18.4169 15.29611459473171
STARLINK-1577           
1 46063U 20055AN  26068.52694568  .00010562  00000+0  36800-3 0  9991
2 46063  53.1613 114.5871 0001392  79.7271 280.3887 15.30219657309046
